CCSDS_OMM_VERS,COMMENT,CREATION_DATE,ORIGINATOR,OBJECT_NAME,OBJECT_ID,CENTER_NAME,REF_FRAME,TIME_SYSTEM,MEAN_ELEMENT_THEORY,EPOCH,MEAN_MOTION,ECCENTRICITY,INCLINATION,RA_OF_ASC_NODE,ARG_OF_PERICENTER,MEAN_ANOMALY,EPHEMERIS_TYPE,CLASSIFICATION_TYPE,NORAD_CAT_ID,ELEMENT_SET_NO,REV_AT_EPOCH,BSTAR,MEAN_MOTION_DOT,MEAN_MOTION_DDOT,SEMIMAJOR_AXIS,PERIOD,APOAPSIS,PERIAPSIS,OBJECT_TYPE,RCS_SIZE,COUNTRY_CODE,LAUNCH_DATE,SITE,DECAY_DATE,FILE,GP_ID,TLE_LINE0,TLE_LINE1,TLE_LINE2
"3.0","GENERATED VIA SPACE-TRACK.ORG API","2026-03-18T04:49:44","18 SPCS","DELTA 1 DEB","1966-008E","EARTH","TEME","UTC","SGP4","2026-03-17T20:36:56.629728","14.71588041","0.00453219","97.8612","196.0244","239.5871","120.0854","0","U","2154","999","16558","0.00020352596000","0.00001235","0.0000000000000","7034.140","97.853","687.885","624.125","DEBRIS","SMALL","US","1966-02-03","AFETR","","5089495","316254399","0 DELTA 1 DEB","1 02154U 66008E   26076.85898877  .00001235  00000-0  20353-3 0  9990","2 02154  97.8612 196.0244 0045322 239.5871 120.0854 14.71588041165588"
"3.0","GENERATED VIA SPACE-TRACK.ORG API","2026-03-18T04:49:44","18 SPCS","DELTA 1 DEB","1975-004HK","EARTH","TEME","UTC","SGP4","2026-03-17T21:48:19.011168","14.58156670","0.00480182","97.8755","53.9361","130.5609","229.9787","0","U","18475","999","13459","0.00009758478400","0.00000413","0.0000000000000","7077.269","98.755","733.118","665.150","DEBRIS","SMALL","US","1975-01-22","AFWTR","","5089495","316258288","0 DELTA 1 DEB","1 18475U 75004HK  26076.90855337  .00000413  00000-0  97585-4 0  9998","2 18475  97.8755  53.9361 0048018 130.5609 229.9787 14.58156670134599"
"3.0","GENERATED VIA SPACE-TRACK.ORG API","2026-03-17T10:38:38","18 SPCS","DELTA 1 DEB","1972-058JR","EARTH","TEME","UTC","SGP4","2026-03-17T03:11:04.319232","14.67474405","0.00360996","97.8769","45.0892","321.7970","38.0678","0","U","42558","999","65699","0.00023722751000","0.00001308","0.0000000000000","7047.279","98.128","694.585","643.704","DEBRIS","SMALL","US","1972-07-23","AFWTR","","5088757","316187280","0 DELTA 1 DEB","1 42558U 72058JR  26076.13268888  .00001308  00000-0  23723-3 0  9993","2 42558  97.8769  45.0892 0036100 321.7970  38.0678 14.67474405656998"
"3.0","GENERATED VIA SPACE-TRACK.ORG API","2026-03-17T10:38:38","18 SPCS","YAOGAN 29 DEB","2015-069F","EARTH","TEME","UTC","SGP4","2026-03-17T07:56:08.042496","14.90987908","0.00024147","97.8875","112.2296","337.8457","22.2656","0","U","42673","999","55829","0.00011044774000","0.00001035","0.0000000000000","6972.991","96.580","596.540","593.172","DEBRIS","SMALL","PRC","2015-11-26","TSC","","5088757","316187834","0 YAOGAN 29 DEB","1 42673U 15069F   26076.33064864  .00001035  00000-0  11045-3 0  9991","2 42673  97.8875 112.2296 0002415 337.8457  22.2656 14.90987908558297"
"3.0","GENERATED VIA SPACE-TRACK.ORG API","2026-03-18T04:49:44","18 SPCS","DELTA 1 DEB","1975-004BN","EARTH","TEME","UTC","SGP4","2026-03-17T23:08:42.614304","14.68055180","0.00376147","97.9224","328.6142","303.7351","56.0272","0","U","8980","999","63382","0.00018960392000","0.00001050","0.0000000000000","7045.421","98.089","693.787","640.784","DEBRIS","MEDIUM","US","1975-01-22","AFWTR","","5089495","316255641","0 DELTA 1 DEB","1 08980U 75004BN  26076.96438211  .00001050  00000-0  18960-3 0  9999","2 08980  97.9224 328.6142 0037615 303.7351  56.0272 14.68055180633822"
"3.0","GENERATED VIA SPACE-TRACK.ORG API","2026-03-18T04:49:44","18 SPCS","YZ-1S DEB","2018-077C","EARTH","TEME","UTC","SGP4","2026-03-17T20:48:08.344800","14.72027290","0.00065604","97.9308","121.3139","7.8058","352.3250","0","U","43644","999","39720","0.00033490892000","0.00002055","0.0000000000000","7032.741","97.824","659.219","649.992","DEBRIS","LARGE","PRC","2018-10-09","JSC","","5089495","316270399","0 YZ-1S DEB","1 43644U 18077C   26076.86676325  .00002055  00000-0  33491-3 0  9993","2 43644  97.9308 121.3139 0006560   7.8058 352.3250 14.72027290397209"
"3.0","GENERATED VIA SPACE-TRACK.ORG API","2026-03-18T04:49:44","18 SPCS","SL-24 DEB","2011-044J","EARTH","TEME","UTC","SGP4","2026-03-17T20:59:06.149472","14.64894857","0.00145081","97.9464","45.4012","103.3300","278.6067","0","U","37796","999","77711","0.00016576014000","0.00000841","0.0000000000000","7055.550","98.301","687.651","667.179","DEBRIS","LARGE","CIS","2011-08-17","OREN","","5089495","316267163","0 SL-24 DEB","1 37796U 11044J   26076.87437673  .00000841  00000-0  16576-3 0  9999","2 37796  97.9464  45.4012 0014508 103.3300 278.6067 14.64894857777112"
"3.0","GENERATED VIA SPACE-TRACK.ORG API","2026-03-18T04:49:44","18 SPCS","CZ-4C DEB","2013-037E","EARTH","TEME","UTC","SGP4","2026-03-17T22:07:25.089888","14.90077736","0.00022322","97.9484","92.5197","296.6058","63.4930","0","U","39212","999","68124","0.00039224319000","0.00003733","0.0000000000000","6975.830","96.639","599.252","596.138","DEBRIS","LARGE","PRC","2013-07-19","TSC","","5089495","316267572","0 CZ-4C DEB","1 39212U 13037E   26076.92181817  .00003733  00000-0  39224-3 0  9998","2 39212  97.9484  92.5197 0002232 296.6058  63.4930 14.90077736681248"
"3.0","GENERATED VIA SPACE-TRACK.ORG API","2026-03-18T04:49:44","18 SPCS","DELTA 1 DEB","1975-004DU","EARTH","TEME","UTC","SGP4","2026-03-17T20:18:43.929792","14.60453214","0.00794484","97.9497","189.8659","114.9032","246.0453","0","U","9293","999","62895","0.00016769524000","0.00000802","0.0000000000000","7069.848","98.600","747.882","635.544","DEBRIS","SMALL","US","1975-01-22","AFWTR","","5089495","316256150","0 DELTA 1 DEB","1 09293U 75004DU  26076.84634178  .00000802  00000-0  16770-3 0  9995","2 09293  97.9497 189.8659 0079448 114.9032 246.0453 14.60453214628952"
"3.0","GENERATED VIA SPACE-TRACK.ORG API","2026-03-18T04:49:44","18 SPCS","SPHEREX DEB","2025-047F","EARTH","TEME","UTC","SGP4","2026-03-17T19:00:57.763008","14.79756299","0.00080154","97.9525","264.9841","109.2562","250.9517","0","U","63332","999","5359","0.00075393880000","0.00005624","0.0000000000000","7008.230","97.313","635.713","624.478","DEBRIS","MEDIUM","US","2025-03-12","AFWTR","","5089495","316282447","0 SPHEREX DEB","1 63332U 25047F   26076.79233522  .00005624  00000-0  75394-3 0  9997","2 63332  97.9525 264.9841 0008015 109.2562 250.9517 14.79756299 53599"
"3.0","GENERATED VIA SPACE-TRACK.ORG API","2026-03-18T04:49:44","18 SPCS","CZ-4C DEB","2010-038D","EARTH","TEME","UTC","SGP4","2026-03-17T17:28:53.204448","14.75969237","0.01204461","97.9537","173.2451","201.9316","157.6714","0","U","37568","999","82229","0.00086650940000","0.00006660","0.0000000000000","7020.213","97.563","726.634","557.522","DEBRIS","SMALL","PRC","2010-08-09","TSC","","5089495","316266083","0 CZ-4C DEB","1 37568U 10038D   26076.72839357  .00006660  00000-0  86651-3 0  9993","2 37568  97.9537 173.2451 0120446 201.9316 157.6714 14.75969237822290"
"3.0","GENERATED VIA SPACE-TRACK.ORG API","2026-03-18T04:49:44","18 SPCS","CZ-4 DEB","2007-042C","EARTH","TEME","UTC","SGP4","2026-03-17T18:18:21.239712","14.62529480","0.00885439","97.9593","88.2211","159.9920","200.4790","0","U","32473","999","96535","0.00044021239000","0.00002313","0.0000000000000","7063.155","98.460","747.560","622.480","DEBRIS","SMALL","PRC","2007-09-19","TSC","","5089495","316264205","0 CZ-4 DEB","1 32473U 07042C   26076.76274583  .00002313  00000-0  44021-3 0  9998","2 32473  97.9593  88.2211 0088544 159.9920 200.4790 14.62529480965350"
"3.0","GENERATED VIA SPACE-TRACK.ORG API","2026-03-18T04:49:44","18 SPCS","H-2A DEB *","2018-084DF","EARTH","TEME","UTC","SGP4","2026-03-17T21:28:58.279872","14.65862927","0.00282558","97.9608","310.0046","290.7718","69.0459","0","U","48551","999","26868","0.00022116794000","0.00001167","0.0000000000000","7052.443","98.236","694.236","654.381","DEBRIS","SMALL","JPN","2018-10-29","TNSTA","","5089495","316272017","0 H-2A DEB *","1 48551U 18084DF  26076.89511898  .00001167  00000-0  22117-3 0  9995","2 48551  97.9608 310.0046 0028256 290.7718  69.0459 14.65862927268688"
"3.0","GENERATED VIA SPACE-TRACK.ORG API","2026-01-23T04:38:27","18 SPCS","FENGYUN 1C DEB","1999-025BAY","EARTH","TEME","UTC","SGP4","2024-10-12T10:35:28.549824","14.69345679","0.00791255","97.9626","152.4276","107.9841","253.0009","0","U","30958","999","56314","0.00812778570000","0.00050669","0.0000000000000","7041.295","98.003","718.874","607.445","DEBRIS","SMALL","PRC","1999-05-10","TSC","","4975303","309669174","0 FENGYUN 1C DEB","1 30958U 99025BAY 24286.44130266  .00050669  00000-0  81278-2 0  9992","2 30958  97.9626 152.4276 0079125 107.9841 253.0009 14.69345679563149"
"3.0","GENERATED VIA SPACE-TRACK.ORG API","2026-03-18T04:49:44","18 SPCS","DELTA 1 DEB","1975-004M","EARTH","TEME","UTC","SGP4","2026-03-17T19:25:05.789856","14.53092150","0.00459279","97.9651","160.5611","209.2481","150.6144","0","U","8685","999","69581","0.00011361564000","0.00000432","0.0000000000000","7093.704","99.099","748.149","682.989","DEBRIS","MEDIUM","US","1975-01-22","AFWTR","","5089495","316256105","0 DELTA 1 DEB","1 08685U 75004M   26076.80909479  .00000432  00000-0  11362-3 0  9995","2 08685  97.9651 160.5611 0045928 209.2481 150.6144 14.53092150695810"
"3.0","GENERATED VIA SPACE-TRACK.ORG API","2026-03-18T04:49:44","18 SPCS","SL-24 DEB","2010-028E","EARTH","TEME","UTC","SGP4","2026-03-17T19:48:51.204096","14.78586101","0.00145883","97.9651","277.2361","322.0980","37.9203","0","U","36602","999","84088","0.00041503923000","0.00002989","0.0000000000000","7011.928","97.390","644.022","623.563","DEBRIS","LARGE","CIS","2010-06-15","OREN","","5089495","316265889","0 SL-24 DEB","1 36602U 10028E   26076.82559264  .00002989  00000-0  41504-3 0  9995","2 36602  97.9651 277.2361 0014588 322.0980  37.9203 14.78586101840887"
